https://ssd.jpl.nasa.gov/api/horizons.api?format=text&COMMAND=%27599%27&CENTER=%27@sun%27&MAKE_EPHEM=%27YES%27&EPHEM_TYPE=%27VECTORS%27&START_TIME=%272005-01-01%27&STOP_TIME=%272025-01-01%27&STEP_SIZE=%271%20d%27&REF_PLANE=%27ECLIPTIC%27

API VERSION: 1.2
API SOURCE: NASA/JPL Horizons API

*******************************************************************************
 Revised: April 12, 2021               Jupiter                              599
 
 PHYSICAL DATA (revised 2025-Jan-30):
  Mass x 10^26 (kg)     = 18.9819           Density (g/cm^3)  = 1.3262 +- .0003
  Equat. radius (1 bar) = 71492+-4 km       Polar radius (km)     = 66854+-10
  Vol. Mean Radius (km) = 69911+-6          Flattening            = 0.06487
  Geometric Albedo      = 0.52              Rocky core mass (Mc/M)= 0.0261
  Sid. rot. period (III)= 9h 55m 29.711 s   Sid. rot. rate (rad/s)= 0.00017585
  Mean solar day, hrs   = ~9.9259         
  GM (km^3/s^2)         = 126686531.900     GM 1-sigma (km^3/s^2) =  +- 1.2732
  Equ. grav, ge (m/s^2) = 24.79             Pol. grav, gp (m/s^2) =  28.34
  Vis. magnitude V(1,0) = -9.40
  Vis. mag. (opposition)= -2.70             Obliquity to orbit    =  3.13 deg
  Sidereal orbit period = 11.861982204 y    Sidereal orbit period = 4332.589 d
  Mean daily motion     = 0.0831294 deg/d   Mean orbit speed, km/s= 13.0697
  Atmos. temp. (1 bar)  = 165+-5 K          Escape speed, km/s    =  59.5           
  A_roche(ice)/Rp       =  2.76             Hill's sphere rad. Rp = 740
                                 Perihelion   Aphelion     Mean
  Solar Constant (W/m^2)         56           46           51
  Maximum Planetary IR (W/m^2)   13.7         13.4         13.6
  Minimum Planetary IR (W/m^2)   13.7         13.4         13.6
*******************************************************************************


*******************************************************************************
Ephemeris / API_USER Mon May  5 13:27:55 2025 Pasadena, USA      / Horizons
*******************************************************************************
Target body name: Jupiter (599)                   {source: jup365_merged}
Center body name: Sun (10)                        {source: jup365_merged}
Center-site name: BODY CENTER
*******************************************************************************
Start time      : A.D. 2005-Jan-01 00:00:00.0000 TDB
Stop  time      : A.D. 2025-Jan-01 00:00:00.0000 TDB
Step-size       : 1440 minutes
*******************************************************************************
Center geodetic : 0.0, 0.0, 0.0                   {E-lon(deg),Lat(deg),Alt(km)}
Center cylindric: 0.0, 0.0, 0.0                   {E-lon(deg),Dxy(km),Dz(km)}
Center radii    : 695700.0, 695700.0, 695700.0 km {Equator_a, b, pole_c}
Output units    : KM-S
Calendar mode   : Mixed Julian/Gregorian
Output type     : GEOMETRIC cartesian states
Output format   : 3 (position, velocity, LT, range, range-rate)
Reference frame : Ecliptic of J2000.0
*******************************************************************************
JDTDB
   X     Y     Z
   VX    VY    VZ
   LT    RG    RR
*******************************************************************************
$$SOE
2454199.500000000 = A.D. 2007-Apr-09 00:00:00.0000 TDB 
 X =-2.702150665085276E+08 Y =-7.513020148057090E+08 Z = 9.165563948807567E+06
 VX= 1.214334840694216E+01 VY=-3.808769004196367E+00 VZ=-2.558734512502410E-01
 LT= 2.663410413761120E+03 RG= 7.984703546042429E+08 RR=-5.286672106008182E-01
2454200.500000000 = A.D. 2007-Apr-10 00:00:00.0000 TDB 
 X =-2.691656625253591E+08 Y =-7.516304377697439E+08 Z = 9.143443994270265E+06
 VX= 1.214953963626632E+01 VY=-3.793381994752604E+00 VZ=-2.561359785450950E-01
 LT= 2.663258272328845E+03 RG= 7.984247437502979E+08 RR=-5.277385057300918E-01
2454201.500000000 = A.D. 2007-Apr-11 00:00:00.0000 TDB 
 X =-2.681156910681187E+08 Y =-7.519573845813226E+08 Z = 9.121307360650331E+06
 VX= 1.215443820789903E+01 VY=-3.775638566894518E+00 VZ=-2.563288241734860E-01
 LT= 2.663105901997579E+03 RG= 7.983790642741612E+08 RR=-5.285889505927515E-01
2454202.500000000 = A.D. 2007-Apr-12 00:00:00.0000 TDB 
 X =-2.670652323907970E+08 Y =-7.522829768334496E+08 Z = 9.099148475083917E+06
 VX= 1.216253772591508E+01 VY=-3.760029227142834E+00 VZ=-2.565548941453695E-01
 LT= 2.662953775687393E+03 RG= 7.983334579537040E+08 RR=-5.285002289805896E-01
2454203.500000000 = A.D. 2007-Apr-13 00:00:00.0000 TDB 
 X =-2.660141472056114E+08 Y =-7.526070244443519E+08 Z = 9.076975814122081E+06
 VX= 1.216780307969860E+01 VY=-3.742070919325517E+00 VZ=-2.567408443150432E-01
 LT= 2.662801142068748E+03 RG= 7.982876995459971E+08 RR=-5.296703562303842E-01
2454204.500000000 = A.D. 2007-Apr-14 00:00:00.0000 TDB 
 X =-2.649625232677617E+08 Y =-7.529295862112861E+08 Z = 9.054786395456046E+06
 VX= 1.217477854940070E+01 VY=-3.723579279784807E+00 VZ=-2.568721710142989E-01
 LT= 2.662648285082455E+03 RG= 7.982418741743538E+08 RR=-5.319101574328909E-01
2454205.500000000 = A.D. 2007-Apr-15 00:00:00.0000 TDB 
 X =-2.639105004436709E+08 Y =-7.532505663281343E+08 Z = 9.032582194671243E+06
 VX= 1.217844028155689E+01 VY=-3.707678722036111E+00 VZ=-2.571438757300752E-01
 LT= 2.662495058538822E+03 RG= 7.981959380122073E+08 RR=-5.306088708502998E-01
2454206.500000000 = A.D. 2007-Apr-16 00:00:00.0000 TDB 
 X =-2.628579661242047E+08 Y =-7.535701662243102E+08 Z = 9.010357357191950E+06
 VX= 1.218481297016122E+01 VY=-3.689859990490739E+00 VZ=-2.573138014064209E-01
 LT= 2.662341971716269E+03 RG= 7.981500437373868E+08 RR=-5.320117955229885E-01
2454207.500000000 = A.D. 2007-Apr-17 00:00:00.0000 TDB 
 X =-2.618050052995406E+08 Y =-7.538883135851030E+08 Z = 8.988112801573694E+06
 VX= 1.219045346934315E+01 VY=-3.674745525470743E+00 VZ=-2.575906626134181E-01
 LT= 2.662188891042637E+03 RG= 7.981041513059665E+08 RR=-5.306190693694248E-01
2454208.500000000 = A.D. 2007-Apr-18 00:00:00.0000 TDB 
 X =-2.607514795114257E+08 Y =-7.542050220118818E+08 Z = 8.965850516719639E+06
 VX= 1.219564729063606E+01 VY=-3.656982344216267E+00 VZ=-2.577743952856020E-01
 LT= 2.662035708411498E+03 RG= 7.980582283084542E+08 RR=-5.315774925477882E-01
2454209.500000000 = A.D. 2007-Apr-19 00:00:00.0000 TDB 
 X =-2.596974856910027E+08 Y =-7.545203783135219E+08 Z = 8.943565970747441E+06
 VX= 1.220345291957600E+01 VY=-3.641968389357383E+00 VZ=-2.580219790159139E-01
 LT= 2.661882804392350E+03 RG= 7.980123888367159E+08 RR=-5.307866338106338E-01
2454210.500000000 = A.D. 2007-Apr-20 00:00:00.0000 TDB 
 X =-2.586428374657288E+08 Y =-7.548342223121234E+08 Z = 8.921267206467777E+06
 VX= 1.220909242644565E+01 VY=-3.623802705788405E+00 VZ=-2.581924674421285E-01
 LT= 2.661729473261535E+03 RG= 7.979664213201209E+08 RR=-5.322622650098260E-01
2454211.500000000 = A.D. 2007-Apr-21 00:00:00.0000 TDB 
 X =-2.575876417345350E+08 Y =-7.551465829144895E+08 Z = 8.898951880132377E+06
 VX= 1.221648017709705E+01 VY=-3.605603467579597E+00 VZ=-2.583265379875113E-01
 LT= 2.661575923930307E+03 RG= 7.979203883886875E+08 RR=-5.343315233737086E-01
2454212.500000000 = A.D. 2007-Apr-22 00:00:00.0000 TDB 
 X =-2.565320050622125E+08 Y =-7.554573318197727E+08 Z = 8.876623653714597E+06
 VX= 1.222006401376228E+01 VY=-3.588984660598159E+00 VZ=-2.585710702569830E-01
 LT= 2.661421867009803E+03 RG= 7.978742032858180E+08 RR=-5.336780962791994E-01
2454213.500000000 = A.D. 2007-Apr-23 00:00:00.0000 TDB 
 X =-2.554758670699942E+08 Y =-7.557666847225432E+08 Z = 8.854275447710812E+06
 VX= 1.222679476729283E+01 VY=-3.571091175644334E+00 VZ=-2.587303120205431E-01
 LT= 2.661267918766923E+03 RG= 7.978280507636800E+08 RR=-5.352408016274992E-01
2454214.500000000 = A.D. 2007-Apr-24 00:00:00.0000 TDB 
 X =-2.544192945452060E+08 Y =-7.560745365489494E+08 Z = 8.831909549106121E+06
 VX= 1.223199202176292E+01 VY=-3.555495545041365E+00 VZ=-2.589952540702374E-01
 LT= 2.661113819415393E+03 RG= 7.977818529403088E+08 RR=-5.341341818287586E-01
2454215.500000000 = A.D. 2007-Apr-25 00:00:00.0000 TDB 
 X =-2.533621664290578E+08 Y =-7.563809315419661E+08 Z = 8.809526546305060E+06
 VX= 1.223738611111647E+01 VY=-3.537178161668983E+00 VZ=-2.591542544465379E-01
 LT= 2.660959580595891E+03 RG= 7.977356133054911E+08 RR=-5.356656550680287E-01
2454216.500000000 = A.D. 2007-Apr-26 00:00:00.0000 TDB 
 X =-2.523046071635239E+08 Y =-7.566859210886860E+08 Z = 8.787122856311977E+06
 VX= 1.224443425764870E+01 VY=-3.522115269285395E+00 VZ=-2.594084688057730E-01
 LT= 2.660805497815442E+03 RG= 7.976894204500052E+08 RR=-5.346336327748736E-01
2454217.500000000 = A.D. 2007-Apr-27 00:00:00.0000 TDB 
 X =-2.512464109526602E+08 Y =-7.569893952354083E+08 Z = 8.764705033305168E+06
 VX= 1.224998402411169E+01 VY=-3.503437393409107E+00 VZ=-2.595597463061119E-01
 LT= 2.660651007391173E+03 RG= 7.976431053859760E+08 RR=-5.365489005404360E-01
2454218.500000000 = A.D. 2007-Apr-28 00:00:00.0000 TDB 
 X =-2.501877101387430E+08 Y =-7.572913631957706E+08 Z = 8.742270987236917E+06
 VX= 1.225703374722412E+01 VY=-3.485419820872657E+00 VZ=-2.597033317218176E-01
 LT= 2.660496279517983E+03 RG= 7.975967191365511E+08 RR=-5.383062209935959E-01
2454219.500000000 = A.D. 2007-Apr-29 00:00:00.0000 TDB 
 X =-2.491285798109305E+08 Y =-7.575916948030913E+08 Z = 8.719825005790889E+06
 VX= 1.226002290292668E+01 VY=-3.468142128198432E+00 VZ=-2.599292422916692E-01
 LT= 2.660340981114643E+03 RG= 7.975501618464905E+08 RR=-5.380889874673852E-01
2454220.500000000 = A.D. 2007-Apr-30 00:00:00.0000 TDB 
 X =-2.480690133155288E+08 Y =-7.578906285678661E+08 Z = 8.697358534478366E+06
 VX= 1.226646918583857E+01 VY=-3.450584527662192E+00 VZ=-2.600998722613979E-01
 LT= 2.660185860478855E+03 RG= 7.975036578498008E+08 RR=-5.392168535039860E-01
2454221.500000000 = A.D. 2007-May-01 00:00:00.0000 TDB 
 X =-2.470090418033362E+08 Y =-7.581880528226447E+08 Z = 8.674874615027130E+06
 VX= 1.227086409521983E+01 VY=-3.434922755169540E+00 VZ=-2.603704906909143E-01
 LT= 2.660030596358200E+03 RG= 7.974571108374307E+08 RR=-5.379043743565894E-01
